start=new Date('2022-11-06T00:00:00.000Z').valueOf();
sats=[{"SITE":"AFETR","TLE_LINE1":"1 48695U 21044BK  22309.86731306 -.00005225  00000-0 -33222-3 0  9994","APOAPSIS":"548.492","CLASSIFICATION_TYPE":"U","PERIOD":"95.593","MEAN_MOTION_DOT":"-0.00005225","EPHEMERIS_TYPE":"0","ELEMENT_SET_NO":"999","INCLINATION":"53.0526","DECAY_DATE":null,"NORAD_CAT_ID":"48695","EPOCH":"2022-11-05T20:48:55.848384","SEMIMAJOR_AXIS":"6925.388","CENTER_NAME":"EARTH","MEAN_ANOMALY":"259.3054","RA_OF_ASC_NODE":"162.6685","MEAN_ELEMENT_THEORY":"SGP4","RCS_SIZE":"LARGE","TIME_SYSTEM":"UTC","MEAN_MOTION":"15.06387072","GP_ID":"217017612","MEAN_MOTION_DDOT":"0.0000000000000","REV_AT_EPOCH":"8034","ECCENTRICITY":"0.00017890","OBJECT_NAME":"STARLINK-2616","TLE_LINE2":"2 48695  53.0526 162.6685 0001789 100.8136 259.3054 15.06387072 80345","BSTAR":"-0.00033222000000","ARG_OF_PERICENTER":"100.8136","PERIAPSIS":"546.014","COUNTRY_CODE":"US","REF_FRAME":"TEME","FILE":"3646512","LAUNCH_DATE":"2021-05-26","OBJECT_ID":"2021-044BK","OBJECT_TYPE":"PAYLOAD"},{"CLASSIFICATION_TYPE":"U","APOAPSIS":"548.231","TLE_LINE1":"1 48696U 21044BL  22309.79130037 -.00004204  00000-0 -26365-3 0  9997","SITE":"AFETR","EPOCH":"2022-11-05T18:59:28.351968","NORAD_CAT_ID":"48696","DECAY_DATE":null,"INCLINATION":"53.0557","ELEMENT_SET_NO":"999","EPHEMERIS_TYPE":"0","MEAN_MOTION_DOT":"-0.00004204","PERIOD":"95.593","ARG_OF_PERICENTER":"90.1098","BSTAR":"-0.00026365000000","TLE_LINE2":"2 48696  53.0557 168.0045 0001381  90.1098 270.0050 15.06380154 80267","OBJECT_NAME":"STARLINK-2753","ECCENTRICITY":"0.00013810","REV_AT_EPOCH":"8026","MEAN_MOTION_DDOT":"0.0000000000000","GP_ID":"217018362","MEAN_MOTION":"15.06380154","RCS_SIZE":"LARGE","TIME_SYSTEM":"UTC","RA_OF_ASC_NODE":"168.0045","MEAN_ELEMENT_THEORY":"SGP4","MEAN_ANOMALY":"270.0050","CENTER_NAME":"EARTH","SEMIMAJOR_AXIS":"6925.409","OBJECT_TYPE":"PAYLOAD","OBJECT_ID":"2021-044BL","LAUNCH_DATE":"2021-05-26","FILE":"3646512","REF_FRAME":"TEME","COUNTRY_CODE":"US","PERIAPSIS":"546.318"},{"CLASSIFICATION_TYPE":"U","TLE_LINE1":"1 48697U 21044BM  22309.75441813 -.00006784  00000-0 -43717-3 0  9996","SITE":"AFETR","APOAPSIS":"548.323","INCLINATION":"53.0538","EPOCH":"2022-11-05T18:06:21.726432","DECAY_DATE":null,"NORAD_CAT_ID":"48697","PERIOD":"95.593","ELEMENT_SET_NO":"999","EPHEMERIS_TYPE":"0","MEAN_MOTION_DOT":"-0.00006784","ECCENTRICITY":"0.00015140","MEAN_MOTION_DDOT":"0.0000000000000","REV_AT_EPOCH":"8025","ARG_OF_PERICENTER":"108.5375","OBJECT_NAME":"STARLINK-2715","BSTAR":"-0.00043717000000","TLE_LINE2":"2 48697  53.0538 168.1339 0001514 108.5375 251.5778 15.06380237 80256","MEAN_ANOMALY":"251.5778","MEAN_ELEMENT_THEORY":"SGP4","RA_OF_ASC_NODE":"168.1339","SEMIMAJOR_AXIS":"6925.409","CENTER_NAME":"EARTH","GP_ID":"217017110","MEAN_MOTION":"15.06380237","RCS_SIZE":"LARGE","TIME_SYSTEM":"UTC","OBJECT_ID":"2021-044BM","OBJECT_TYPE":"PAYLOAD","COUNTRY_CODE":"US","REF_FRAME":"TEME","PERIAPSIS":"546.226","LAUNCH_DATE":"2021-05-26","FILE":"3646512"},{"PERIOD":"95.816","MEAN_MOTION_DOT":"-0.00019965","ELEMENT_SET_NO":"999","EPHEMERIS_TYPE":"0","INCLINATION":"97.5150","NORAD_CAT_ID":"48879","DECAY_DATE":null,"EPOCH":"2022-11-05T22:00:01.999584","SITE":"AFETR","TLE_LINE1":"1 48879U 21059A   22309.91668981 -.00019965  00000-0 -14895-2 0  9998","APOAPSIS":"559.522","CLASSIFICATION_TYPE":"U","PERIAPSIS":"556.548","REF_FRAME":"TEME","COUNTRY_CODE":"US","FILE":"3645638","LAUNCH_DATE":"2021-06-30","OBJECT_ID":"2021-059A","OBJECT_TYPE":"PAYLOAD","CENTER_NAME":"EARTH","SEMIMAJOR_AXIS":"6936.170","RA_OF_ASC_NODE":"76.2459","MEAN_ELEMENT_THEORY":"SGP4","MEAN_ANOMALY":"138.7039","RCS_SIZE":"LARGE","TIME_SYSTEM":"UTC","MEAN_MOTION":"15.02876061","GP_ID":"216976132","REV_AT_EPOCH":"7576","MEAN_MOTION_DDOT":"0.0000000000000","ECCENTRICITY":"0.00021440","BSTAR":"-0.00148950000000","TLE_LINE2":"2 48879  97.5150  76.2459 0002144  52.6122 138.7039 15.02876061 75769","OBJECT_NAME":"STARLINK-3003","ARG_OF_PERICENTER":"52.6122"},{"ARG_OF_PERICENTER":"55.1110","TLE_LINE2":"2 48880  97.5145  76.2478 0001928  55.1110 145.5147 15.02925976  1305","BSTAR":"-0.00440110000000","OBJECT_NAME":"STARLINK-3004","ECCENTRICITY":"0.00019280","REV_AT_EPOCH":"130","MEAN_MOTION_DDOT":"0.0000000000000","MEAN_MOTION":"15.02925976","GP_ID":"217018131","TIME_SYSTEM":"UTC","RCS_SIZE":"LARGE","MEAN_ELEMENT_THEORY":"SGP4","RA_OF_ASC_NODE":"76.2478","MEAN_ANOMALY":"145.5147","CENTER_NAME":"EARTH","SEMIMAJOR_AXIS":"6936.016","OBJECT_TYPE":"PAYLOAD","OBJECT_ID":"2021-059B","LAUNCH_DATE":"2021-06-30","FILE":"3646512","REF_FRAME":"TEME","COUNTRY_CODE":"US","PERIAPSIS":"556.544","CLASSIFICATION_TYPE":"U","APOAPSIS":"559.219","TLE_LINE1":"1 48880U 21059B   22309.91668981 -.00058634  00000-0 -44011-2 0  9999","SITE":"AFETR","EPOCH":"2022-11-05T22:00:01.999584","NORAD_CAT_ID":"48880","DECAY_DATE":null,"INCLINATION":"97.5145","ELEMENT_SET_NO":"999","EPHEMERIS_TYPE":"0","MEAN_MOTION_DOT":"-0.00058634","PERIOD":"95.813"},{"CLASSIFICATION_TYPE":"U","APOAPSIS":"559.420","TLE_LINE1":"1 48881U 21059C   22309.91668981 -.00016239  00000-0 -12101-2 0  9990","SITE":"AFETR","EPOCH":"2022-11-05T22:00:01.999584","NORAD_CAT_ID":"48881","DECAY_DATE":null,"INCLINATION":"97.5134","EPHEMERIS_TYPE":"0","ELEMENT_SET_NO":"999","MEAN_MOTION_DOT":"-0.00016239","PERIOD":"95.816","ARG_OF_PERICENTER":"49.6182","BSTAR":"-0.00121010000000","TLE_LINE2":"2 48881  97.5134  76.2778 0001999  49.6182 174.0651 15.02876587  1302","OBJECT_NAME":"STARLINK-3005","ECCENTRICITY":"0.00019990","REV_AT_EPOCH":"130","MEAN_MOTION_DDOT":"0.0000000000000","GP_ID":"217017882","MEAN_MOTION":"15.02876587","RCS_SIZE":"LARGE","TIME_SYSTEM":"UTC","MEAN_ELEMENT_THEORY":"SGP4","RA_OF_ASC_NODE":"76.2778","MEAN_ANOMALY":"174.0651","CENTER_NAME":"EARTH","SEMIMAJOR_AXIS":"6936.168","OBJECT_TYPE":"PAYLOAD","OBJECT_ID":"2021-059C","LAUNCH_DATE":"2021-06-30","FILE":"3646512","REF_FRAME":"TEME","COUNTRY_CODE":"US","PERIAPSIS":"556.647"},{"BSTAR":"-0.00013977000000","TLE_LINE2":"2 49131  70.0002  90.5870 0003348 258.8275 101.2508 14.98326996 64210","OBJECT_NAME":"STARLINK-3096","ARG_OF_PERICENTER":"258.8275","REV_AT_EPOCH":"6421","MEAN_MOTION_DDOT":"0.0000000000000","ECCENTRICITY":"0.00033480","RCS_SIZE":"LARGE","TIME_SYSTEM":"UTC","GP_ID":"217018411","MEAN_MOTION":"14.98326996","CENTER_NAME":"EARTH","SEMIMAJOR_AXIS":"6950.202","MEAN_ELEMENT_THEORY":"SGP4","RA_OF_ASC_NODE":"90.5870","MEAN_ANOMALY":"101.2508","OBJECT_TYPE":"PAYLOAD","OBJECT_ID":"2021-082B","FILE":"3646512","LAUNCH_DATE":"2021-09-14","PERIAPSIS":"569.740","REF_FRAME":"TEME","COUNTRY_CODE":"US","CLASSIFICATION_TYPE":"U","TLE_LINE1":"1 49131U 21082B   22309.65522701 -.00001760  00000-0 -13977-3 0  9991","APOAPSIS":"574.394","SITE":"AFWTR","NORAD_CAT_ID":"49131","DECAY_DATE":null,"EPOCH":"2022-11-05T15:43:31.613664","INCLINATION":"70.0002","MEAN_MOTION_DOT":"-0.00001760","EPHEMERIS_TYPE":"0","ELEMENT_SET_NO":"999","PERIOD":"96.107"},{"OBJECT_ID":"2021-082C","OBJECT_TYPE":"PAYLOAD","COUNTRY_CODE":"US","REF_FRAME":"TEME","PERIAPSIS":"569.827","LAUNCH_DATE":"2021-09-14","FILE":"3646512","ECCENTRICITY":"0.00032240","MEAN_MOTION_DDOT":"0.0000000000000","REV_AT_EPOCH":"6324","ARG_OF_PERICENTER":"248.8584","OBJECT_NAME":"STARLINK-3090","TLE_LINE2":"2 49132  69.9981 130.3347 0003224 248.8584 111.2231 14.98326658 63242","BSTAR":"0.00000102800000","MEAN_ANOMALY":"111.2231","MEAN_ELEMENT_THEORY":"SGP4","RA_OF_ASC_NODE":"130.3347","SEMIMAJOR_AXIS":"6950.203","CENTER_NAME":"EARTH","GP_ID":"217018661","MEAN_MOTION":"14.98326658","RCS_SIZE":"LARGE","TIME_SYSTEM":"UTC","INCLINATION":"69.9981","EPOCH":"2022-11-05T18:06:52.432992","DECAY_DATE":null,"NORAD_CAT_ID":"49132","PERIOD":"96.107","ELEMENT_SET_NO":"999","EPHEMERIS_TYPE":"0","MEAN_MOTION_DOT":"-0.00000081","CLASSIFICATION_TYPE":"U","APOAPSIS":"574.309","TLE_LINE1":"1 49132U 21082C   22309.75477353 -.00000081  00000-0  10280-5 0  9995","SITE":"AFWTR"},{"ARG_OF_PERICENTER":"241.4757","TLE_LINE2":"2 49133  69.9981 130.6885 0003273 241.4757 118.6073 14.98321111 63220","BSTAR":"-0.00013876000000","OBJECT_NAME":"STARLINK-3077","ECCENTRICITY":"0.00032730","REV_AT_EPOCH":"6322","MEAN_MOTION_DDOT":"0.0000000000000","GP_ID":"217019413","MEAN_MOTION":"14.98321111","TIME_SYSTEM":"UTC","RCS_SIZE":"LARGE","RA_OF_ASC_NODE":"130.6885","MEAN_ELEMENT_THEORY":"SGP4","MEAN_ANOMALY":"118.6073","CENTER_NAME":"EARTH","SEMIMAJOR_AXIS":"6950.220","OBJECT_TYPE":"PAYLOAD","OBJECT_ID":"2021-082D","LAUNCH_DATE":"2021-09-14","FILE":"3646512","REF_FRAME":"TEME","COUNTRY_CODE":"US","PERIAPSIS":"569.811","CLASSIFICATION_TYPE":"U","TLE_LINE1":"1 49133U 21082D   22309.61649164 -.00001748  00000-0 -13876-3 0  9996","SITE":"AFWTR","APOAPSIS":"574.360","EPOCH":"2022-11-05T14:47:44.877696","NORAD_CAT_ID":"49133","DECAY_DATE":null,"INCLINATION":"69.9981","EPHEMERIS_TYPE":"0","ELEMENT_SET_NO":"999","MEAN_MOTION_DOT":"-0.00001748","PERIOD":"96.108"},{"ARG_OF_PERICENTER":"255.6160","OBJECT_NAME":"STARLINK-3078","BSTAR":"0.00028858000000","TLE_LINE2":"2 49134  69.9994 130.5443 0003053 255.6160 104.4660 14.98336436 64430","ECCENTRICITY":"0.00030530","MEAN_MOTION_DDOT":"0.0000000000000","REV_AT_EPOCH":"6443","GP_ID":"217020163","MEAN_MOTION":"14.98336436","TIME_SYSTEM":"UTC","RCS_SIZE":"LARGE","MEAN_ANOMALY":"104.4660","RA_OF_ASC_NODE":"130.5443","MEAN_ELEMENT_THEORY":"SGP4","SEMIMAJOR_AXIS":"6950.173","CENTER_NAME":"EARTH","OBJECT_TYPE":"PAYLOAD","OBJECT_ID":"2021-082E","LAUNCH_DATE":"2021-09-14","FILE":"3646512","COUNTRY_CODE":"US","REF_FRAME":"TEME","PERIAPSIS":"569.916","CLASSIFICATION_TYPE":"U","TLE_LINE1":"1 49134U 21082E   22309.67850051  .00003353  00000-0  28858-3 0  9990","SITE":"AFWTR","APOAPSIS":"574.160","EPOCH":"2022-11-05T16:17:02.444064","DECAY_DATE":null,"NORAD_CAT_ID":"49134","INCLINATION":"69.9994","ELEMENT_SET_NO":"999","EPHEMERIS_TYPE":"0","MEAN_MOTION_DOT":"0.00003353","PERIOD":"96.107"}];
